#cP2022 10 18  0  0  0.00000000      96 ORBIT IGb14 HLM  IGS
## 2232 172800.00000000   900.00000000 59870 0.0000000000000
+   32   G01G02G03G04G05G06G07G08G09G10G11G12G13G14G15G16G17
+        G18G19G20G21G22G23G24G25G26G27G28G29G30G31G32  0  0
+          0  0  0  0  0  0  0  0  0  0  0  0  0  0  0  0  0
+          0  0  0  0  0  0  0  0  0  0  0  0  0  0  0  0  0
+          0  0  0  0  0  0  0  0  0  0  0  0  0  0  0  0  0
++         2  2  1  2  2  2  2  2  2  2  3  2  2  2  2  2  2
++         3  2  2  2  2  2  4  2  2  2  2  2  2  2  2  0  0
++         0  0  0  0  0  0  0  0  0  0  0  0  0  0  0  0  0
++         0  0  0  0  0  0  0  0  0  0  0  0  0  0  0  0  0
++         0  0  0  0  0  0  0  0  0  0  0  0  0  0  0  0  0
%c G  cc GPS ccc cccc cccc cccc cccc ccccc ccccc ccccc ccccc
%c cc cc ccc ccc cccc cccc cccc cccc ccccc ccccc ccccc ccccc
%f  1.2500000  1.025000000  0.00000000000  0.000000000000000
%f  0.0000000  0.000000000  0.00000000000  0.000000000000000
%i    0    0    0    0      0      0      0      0         0
%i    0    0    0    0      0      0      0      0         0
/* RAPID ORBIT COMBINATION FROM WEIGHTED AVERAGE OF:        
/* cod emr esa gfz jpl ngs sio usn whu                      
/* REFERENCED TO IGS TIME (IGST) AND TO WEIGHTED MEAN POLE: 
/* PCV:IGS14_2223 OL/AL:FES2004  NONE     Y  ORB:CMB CLK:CMB
*  2022 10 18  5 15  0.00000000
PG01  13156.359507 -15944.324428  16167.882956    265.761858  6  2  6 106       
PG02 -12665.468292  15295.477069 -17104.860133   -641.895171  5  6  6  90       
PG03  23318.315498 -12130.965023  -3518.920138   -365.596494  2  5  5  87       
PG04  14673.280495  -6904.133446 -21052.194491   -101.770817  5  2  5  87       
PG05 -24796.469850   4914.261654  -8522.464841   -100.830122  5  5  6 107       
PG06  -7380.074538 -20238.330431 -15420.886125    494.324496  6  6  4  97       
PG07   5731.006098 -25426.799401  -3031.192552    297.566362  4  6  7  93       
PG08  21297.155340   1871.481387  15946.445694    -89.404577  2  3  3 108       
PG09   3482.866043 -15945.087153 -21027.026128   -281.668068  7     6  90       
PG10   3662.608658  14616.508087  22006.079813     -7.990062  6  5  5 113       
PG11 -13042.162588  -9602.559952 -21053.749940    -27.222985  7  9  3  79       
PG12 -24149.420335  10452.076161  -3436.883963   -293.573074  5  5  7  95       
PG13 -21489.915488 -11016.414879  11094.899051    408.098562  5  7  5 102       
PG14   -982.490023 -15837.081208  21293.710360    -93.886051  5  9  6  97       
PG15 -21491.078996    732.420095  15329.291178    -19.987000  5  6  5 110       
PG16  23316.969243   2322.187417 -13213.632788   -526.359371  5  7  3 116       
PG17  -9004.167431 -20755.177756  14299.765696    669.768569  5  6  5  76       
PG18  -5350.755964  25865.089832  -1945.084251     10.721300  7 14  5  98       
PG19 -17150.738564 -20057.399986   3816.283353    225.288200  5  9  6  79       
PG20 -18261.406424  -4579.371564 -18633.722082    477.463230  4  7  6 105       
PG21  15199.542945  -6470.622294  21255.872102    157.813600     7  6 124       
PG22  18563.278840  19049.979914   2174.873228    347.748043  5  7  4 104       
PG23  -8136.870307  17341.396144  18330.982042     -1.059229  2  7  5 105       
PG24 -14205.046994  12202.393085  18347.075377 999999.999999
PG25 -16232.704955  16674.848851 -12833.652903    383.516424  5  6  6  90       
PG26  16200.442945   8191.487275 -19576.895072    232.845501  5  6  7 112       
PG27  22922.881494  12151.926909   6374.606078    196.061903  4  7  3 100       
PG28 -10348.407821 -12395.255084  21549.521392    327.542265  8  6  4  47       
PG29  -5790.089896  14344.702908 -21621.365242   -560.492637  4  7  7 103       
PG30  -2038.914677 -25202.295403   7787.988067   -537.210461  5  7  6 108       
PG31   8596.892623  19070.117139 -16235.732891   -197.178394  5  7  2 116       
PG32  12956.101115  20204.578806  11734.759011   -266.930339  3  6  2 106       
*  2022 10 18  5 30  0.00000000
PG01  13055.860147 -13925.812768  18006.173532    265.756406  6  3  5  94       
PG02 -12755.264393  13136.726663 -18684.848710   -641.893698  5  6  6  93       
PG03  23613.239980 -12022.466653   -640.541813   -365.600049  1  5  4  82       
PG04  16486.242329  -5399.799303 -20139.092405   -101.765263  5  1  5  94       
PG05 -23913.041833   4233.813244 -11071.370343   -100.831170  5  3  6 105       
PG06  -7062.153299 -21859.186780 -13200.797579    494.334137  6  7  4 105       
PG07   5989.886222 -24833.809772  -5834.386336    297.562683  5  7  7  94       
PG08  22605.101817   2969.840358  13880.848763    -89.405804  1  3  1  99       
PG09   5504.909379 -14610.041714 -21563.800592   -281.663412  6     6  96       
PG10   1403.607137  15590.060159  21563.556349     -7.991270  7  5  4 104       
PG11 -12601.470150 -11917.155361 -20122.007946    -27.227087  7  9  4  37       
PG12 -24421.346989  10293.833907   -573.651087   -293.576942  4  5  7 108       
PG13 -22177.566317 -11946.375385   8539.428123    408.104880  5  7  4 107       
PG14   1268.995024 -16675.484561  20617.661129    -93.882396  5 10  6 104       
PG15 -22876.240606   -288.264543  13287.417796    -19.983909  5  6  5 107       
PG16  21875.201577   2973.635040 -15374.698661   -526.359465  5  7  3 119       
PG17  -7611.836202 -19796.201121  16386.866913    669.771577  5  6  4  82       
PG18  -5531.323893  25453.741325  -4798.695554     10.709164  6 14  6  88       
PG19 -16564.071487 -19785.322229   6604.872592    225.292637  5  9  6  73       
PG20 -16490.134993  -5921.334646 -19885.569937    477.460456  4  7  5 106       
PG21  15232.640979  -4116.257896  21893.227032    157.813057     6  6 115       
PG22  18137.575699  18991.687272   4983.940685    347.754087  4  7  4 105       
PG23 -10002.450765  18083.779887  16598.647538     -1.059416  2  8  5 103       
PG24 -14333.036110   9945.822115  19585.551698 999999.999999
PG25 -17514.992133  16999.098600 -10418.392290    383.519964  5  7  6 107       
PG26  14227.186650   9335.738998 -20548.538136    232.846861  5  6  7 113       
PG27  23286.647090  12654.055373   3598.042870    196.055965  4  7  4 104       
PG28  -8102.177200 -13212.412254  22053.316195    327.537774  8  7  5  22       
PG29  -7706.944061  12765.467320 -22017.517127   -560.495134  4  7  7  94       
PG30  -1628.572490 -25894.601369   5099.568594   -537.210371  5  8  6 139       
PG31   8165.950207  20765.382542 -14193.260167   -197.179671  5  8  2 119       
PG32  11664.106395  19526.404433  14024.845635   -266.941104  4  6  2 109       
*  2022 10 18  5 45  0.00000000
PG01  13056.478571 -11711.881911  19523.212596    265.750896  6  2  5 109       
PG02 -12964.288378  10817.350830 -19928.387726   -641.892383  5  6  5 111       
PG03  23623.542913 -11777.289627   2248.918277   -365.603600  2  5  4  82       
PG04  18273.523015  -4062.496043 -18880.249899   -101.759708  4     5  78       
PG05 -22827.857536   3370.283763 -13432.492899   -100.832538  5  3  7  95       
PG06  -6848.615410 -23229.558466 -10751.834540    494.343896  6  7  4 100       
PG07   6264.936248 -23937.150330  -8532.988096    297.559487  5  6  6  64       
PG08  23757.827265   3868.850781  11579.878113    -89.407474  2  3     98       
PG09   7626.349011 -13360.233105 -21732.125166   -281.658795  6     7  98       
PG10   -739.366328  16653.984648  20753.562835     -7.992225  7  5  4 101       
PG11 -12295.368057 -14126.908149 -18844.216513    -27.231166  8  9  5  30       
PG12 -24403.528490  10018.161469   2299.484745   -293.581130  4  6  7 111       
PG13 -22687.084628 -12644.091591   5837.597577    408.110886  5  8  4 116       
PG14   3389.142374 -17585.246489  19586.337507    -93.878704  5 10  6  94       
PG15 -24083.749588  -1134.805014  11014.147957    -19.981455  5  6  4 106       
PG16  20261.236596   3789.398900 -17281.122091   -526.359807  5  7  3 116       
PG17  -5995.304635 -18788.187448  18199.539278    669.774662  5  6  4  92       
PG18  -5713.946327  24733.449522  -7569.023489     10.697075  5 13  6  95       
PG19 -15719.449169 -19354.355316   9280.714749    225.297281  5  9  5  96       
PG20 -14690.615990  -7420.797068 -20793.041980    477.457261  3  7  5  96       
PG21  15393.003694  -1724.641025  22171.418485    157.813598  1  6  6 127       
PG22  17464.582274  18766.232696   7708.884634    347.760484  4  8  4 110       
PG23 -11640.437658  18820.750142  14578.936040     -1.059594  2  9  5 111       
PG24 -14570.222149   7578.108847  20474.117744 999999.999999
PG25 -18531.986598  17253.962790  -7823.414321    383.523476  6  7  6 111       
PG26  12233.073446  10622.200476 -21171.313799    232.848117  5  6  7 110       
PG27  23411.015206  12964.993184    760.805152    196.050048  5  7  4  99       
PG28  -5873.393038 -14162.747148  22194.029571    327.533132  8  7  5  61       
PG29  -9726.039971  11280.695810 -22036.173848   -560.497789  4  7  6 112       
PG30  -1268.734115 -26296.704360   2322.212427   -537.210173  5  7  6  92       
PG31   7835.780345  22237.491221 -11903.351551   -197.180702  5  7  1 105       
PG32  10131.777726  18787.442505  16077.900834   -266.951902  4  6  2 110       
EOF
